FLOCK 3P-32             
1 42023U 17008CD  17073.69287452  .00001048  00000-0  49481-4 0  9991
2 42023  97.5082 135.2708 0008910 153.1898 206.9813 15.21663329  4161
